STARLINK-30413          
1 57814U 23138G   26132.97068755 -.00005845  00000+0 -20279-3 0  9999
2 57814  43.0005 231.6415 0001530 262.5540  97.5137 15.27618502148567
STARLINK-30398          
1 57815U 23138H   26132.55653106  .00001394  00000+0  60158-4 0  9998
2 57815  43.0015 233.6922 0001236 273.9040  86.1670 15.27580784148407
STARLINK-30386          
1 57816U 23138J   26132.56037668  .00002615  00000+0  10452-3 0  9997
2 57816  43.0028 233.7227 0001500 243.4228 116.6470 15.27585764148326
STARLINK-30391          
1 57817U 23138K   26132.95655737  .00013650  00000+0  50464-3 0  9992
2 57817  42.9987 231.5307 0000922 266.5126  93.5620 15.27580210148561
STARLINK-30401          
1 57818U 23138L   26132.95912972  .00002056  00000+0  84248-4 0  9996
2 57818  43.0001 231.5429 0001241 267.7788  92.2921 15.27571467148461
STARLINK-30390          
1 57819U 23138M   26132.96298701  .00005967  00000+0  22610-3 0  9993
2 57819  42.9967 231.5821 0001035 277.2739  82.7995 15.27591531148504
STARLINK-30409          
1 57820U 23138N   26133.24751192  .00000238  00000+0  18185-4 0  9994
2 57820  43.0043 229.3985 0001767 265.3918  94.6732 15.27577125148557
STARLINK-30415          
1 57821U 23138P   26132.97454799  .00000768  00000+0  37430-4 0  9999
2 57821  43.0024 231.6668 0001263 273.9966  86.0741 15.27583892148564
STARLINK-30407          
1 57823U 23138R   26132.68375472  .00000148  00000+0  14901-4 0  9999
2 57823  43.0009 127.3772 0001215 273.6051  86.4662 15.27575247149758
STARLINK-30408          
1 57824U 23138S   26133.24366931  .00011182  00000+0  41592-3 0  9998
2 57824  43.0062 229.3920 0001944 268.4884  91.5745 15.27527918148605
STARLINK-30377          
1 57825U 23138T   26133.24235076  .00006382  00000+0  24098-3 0  9992
2 57825  42.9995 229.3797 0000994 279.6833  80.3906 15.27614447148501
STARLINK-30422          
1 57826U 23138U   26132.67702005  .00001260  00000+0  55312-4 0  9994
2 57826  43.0039 232.8666 0001420 259.2392 100.8300 15.27581720148510
STARLINK-30402          
1 57827U 23138V   26133.25522143  .00000746  00000+0  36645-4 0  9999
2 57827  43.0062 229.4748 0002015 265.9509  94.1113 15.27578427148602
STARLINK-30411          
1 57828U 23138W   26133.25138292  .00000224  00000+0  17659-4 0  9993
2 57828  43.0055 229.4227 0001471 257.6741 102.3946 15.27563983148548
STARLINK-30418          
1 57829U 23138X   26133.24623170  .00000507  00000+0  27971-4 0  9999
2 57829  43.0064 229.4076 0001388 270.5288  89.5405 15.27571329148446
YAOGAN-40 01A           
1 57830U 23139A   26133.29844065  .00000087  00000+0  36866-4 0  9991
2 57830  85.9886 275.6117 0001840  93.8475 266.2918 14.12440608137776
YAOGAN-40 01B           
1 57832U 23139C   26133.29860079  .00000110  00000+0  49157-4 0  9990
2 57832  85.9881 275.5905 0001728  94.8724 265.2656 14.12440195137780
YAOGAN-40 01C           
1 57833U 23139D   26133.22768235  .00000111  00000+0  49922-4 0  9996
2 57833  85.9889 274.9057 0002057 119.0826 241.0563 14.12441337137877
STARLINK-30285          
1 57840U 23141A   26132.85823028 -.00000282  00000+0  26655-5 0  9996
2 57840  53.1613 345.9786 0001007  89.9455 270.1662 15.31698415150154
STARLINK-30410          
1 57841U 23141B   26132.99803640 -.00000658  00000+0 -94432-5 0  9996
2 57841  53.1611 345.2429 0001307 114.6034 245.5104 15.31712591150173
STARLINK-30435          
1 57842U 23141C   26133.01436556  .00000301  00000+0  22285-4 0  9998
2 57842  53.1615 345.3724 0001194  85.2590 274.8547 15.30195403150173
STARLINK-30423          
1 57843U 23141D   26133.00737229  .00001307  00000+0  53856-4 0  9994
2 57843  53.1619 345.2847 0000947  79.5975 280.5133 15.31700558150170
STARLINK-30292          
1 57844U 23141E   26132.82994909 -.00000587  00000+0 -76985-5 0  9994
2 57844  53.1605 345.8164 0001138  95.3442 264.7689 15.30190319150157
STARLINK-30416          
1 57847U 23141H   26133.25002315 -.00033084  00000+0 -10585-2 0  9995
2 57847  53.1598 344.2763 0001140  79.6677 204.8069 15.31718029  5866
STARLINK-30426          
1 57848U 23141J   26132.89111417  .00000080  00000+0  14826-4 0  9991
2 57848  53.1610 345.9462 0001163  91.8154 268.2980 15.30192666150158
STARLINK-30430          
1 57849U 23141K   26132.87110198 -.00000001  00000+0  12086-4 0  9995
2 57849  53.1608 346.0663 0001074  78.3810 281.7311 15.30194662150157
STARLINK-30425          
1 57850U 23141L   26132.82896775 -.00000776  00000+0 -14074-4 0  9993
2 57850  53.1613 346.2756 0001189  93.6938 266.4199 15.30190809150140
STARLINK-30405          
1 57851U 23141M   26132.99339184  .00001426  00000+0  57697-4 0  9997
2 57851  53.1607 345.3550 0001104  87.5594 272.5534 15.31704236150173
STARLINK-30431          
1 57852U 23141N   26132.96585396 -.00000125  00000+0  78914-5 0  9995
2 57852  53.1607 345.2385 0001164  92.9231 267.1903 15.30189992150167
STARLINK-30404          
1 57853U 23141P   26132.96163303 -.00001058  00000+0 -23627-4 0  9993
2 57853  53.1612 345.2087 0001068  82.9638 277.1484 15.30186317150170
