OBJECT_NAME,OBJECT_ID,EPOCH,MEAN_MOTION,ECCENTRICITY,INCLINATION,RA_OF_ASC_NODE,ARG_OF_PERICENTER,MEAN_ANOMALY,EPHEMERIS_TYPE,CLASSIFICATION_TYPE,NORAD_CAT_ID,ELEMENT_SET_NO,REV_AT_EPOCH,BSTAR,MEAN_MOTION_DOT,MEAN_MOTION_DDOT
STARLINK-30413,2023-138G,2026-05-12T23:17:47.404320,15.27618502,.00015307,43.0005,231.6415,262.5540,97.5137,0,U,57814,999,14856,-.2027941E-3,-.5845E-4,0
STARLINK-30398,2023-138H,2026-05-12T13:21:24.283584,15.27580784,.0001236,43.0015,233.6922,273.9040,86.1670,0,U,57815,999,14840,.60158E-4,.1394E-4,0
STARLINK-30386,2023-138J,2026-05-12T13:26:56.545152,15.27585764,.00015,43.0028,233.7227,243.4228,116.6470,0,U,57816,999,14832,.10452E-3,.2615E-4,0
STARLINK-30391,2023-138K,2026-05-12T22:57:26.556768,15.27580210,.00009221,42.9987,231.5307,266.5126,93.5620,0,U,57817,999,14856,.5046424E-3,.1365E-3,0
STARLINK-30401,2023-138L,2026-05-12T23:01:08.807808,15.27571467,.00012418,43.0001,231.5429,267.7788,92.2921,0,U,57818,999,14846,.84248155E-4,.2056E-4,0
STARLINK-30390,2023-138M,2026-05-12T23:06:42.077664,15.27591531,.00010354,42.9967,231.5821,277.2739,82.7995,0,U,57819,999,14850,.22610076E-3,.5967E-4,0
STARLINK-30409,2023-138N,2026-05-13T05:56:25.029888,15.27577125,.00017676,43.0043,229.3985,265.3918,94.6732,0,U,57820,999,14855,.18185234E-4,.238E-5,0
STARLINK-30415,2023-138P,2026-05-12T23:23:20.946336,15.27583892,.00012635,43.0024,231.6668,273.9966,86.0741,0,U,57821,999,14856,.37429573E-4,.768E-5,0
STARLINK-30407,2023-138R,2026-05-12T16:24:36.407808,15.27575247,.00012158,43.0009,127.3772,273.6051,86.4662,0,U,57823,999,14975,.14901083E-4,.148E-5,0
STARLINK-30408,2023-138S,2026-05-13T05:50:53.028384,15.27527918,.00019442,43.0062,229.3920,268.4884,91.5745,0,U,57824,999,14860,.41592153E-3,.11182E-3,0
STARLINK-30377,2023-138T,2026-05-13T05:48:59.105664,15.27614447,.00009946,42.9995,229.3797,279.6833,80.3906,0,U,57825,999,14850,.2409812E-3,.6382E-4,0
STARLINK-30422,2023-138U,2026-05-12T16:14:54.532320,15.27581720,.00014208,43.0039,232.8666,259.2392,100.8300,0,U,57826,999,14851,.55311739E-4,.126E-4,0
STARLINK-30402,2023-138V,2026-05-13T06:07:31.131552,15.27578427,.00020157,43.0062,229.4748,265.9509,94.1113,0,U,57827,999,14860,.36645122E-4,.746E-5,0
STARLINK-30411,2023-138W,2026-05-13T06:01:59.484288,15.27563983,.0001471,43.0055,229.4227,257.6741,102.3946,0,U,57828,999,14854,.17658637E-4,.224E-5,0
STARLINK-30418,2023-138X,2026-05-13T05:54:34.418880,15.27571329,.00013884,43.0064,229.4076,270.5288,89.5405,0,U,57829,999,14844,.27971032E-4,.507E-5,0
YAOGAN-40 01A,2023-139A,2026-05-13T07:09:45.272160,14.12440608,.00018409,85.9886,275.6117,93.8475,266.2918,0,U,57830,999,13777,.36866106E-4,.87E-6,0
YAOGAN-40 01B,2023-139C,2026-05-13T07:09:59.108256,14.12440195,.00017287,85.9881,275.5905,94.8724,265.2656,0,U,57832,999,13778,.49157105E-4,.11E-5,0
YAOGAN-40 01C,2023-139D,2026-05-13T05:27:51.755040,14.12441337,.00020575,85.9889,274.9057,119.0826,241.0563,0,U,57833,999,13787,.49922007E-4,.111E-5,0
STARLINK-30285,2023-141A,2026-05-12T20:35:51.096192,15.31698415,.00010076,53.1613,345.9786,89.9455,270.1662,0,U,57840,999,15015,.2665524E-5,-.282E-5,0
STARLINK-30410,2023-141B,2026-05-12T23:57:10.344960,15.31712591,.00013078,53.1611,345.2429,114.6034,245.5104,0,U,57841,999,15017,-.9443161E-5,-.658E-5,0
STARLINK-30435,2023-141C,2026-05-13T00:20:41.184384,15.30195403,.00011948,53.1615,345.3724,85.2590,274.8547,0,U,57842,999,15017,.22285421E-4,.301E-5,0
STARLINK-30423,2023-141D,2026-05-13T00:10:36.965856,15.31700558,.00009474,53.1619,345.2847,79.5975,280.5133,0,U,57843,999,15017,.53856423E-4,.1307E-4,0
STARLINK-30292,2023-141E,2026-05-12T19:55:07.601376,15.30190319,.00011386,53.1605,345.8164,95.3442,264.7689,0,U,57844,999,15015,-.7698517E-5,-.587E-5,0
STARLINK-30416,2023-141H,2026-05-13T06:00:02.000160,15.31718029,.00011401,53.1598,344.2763,79.6677,204.8069,0,U,57847,999,586,-.10584501E-2,-.33084E-3,0
STARLINK-30426,2023-141J,2026-05-12T21:23:12.264288,15.30192666,.0001163,53.1610,345.9462,91.8154,268.2980,0,U,57848,999,15015,.14826E-4,.8E-6,0
STARLINK-30430,2023-141K,2026-05-12T20:54:23.211072,15.30194662,.00010748,53.1608,346.0663,78.3810,281.7311,0,U,57849,999,15015,.12085668E-4,-.1E-7,0
STARLINK-30425,2023-141L,2026-05-12T19:53:42.813600,15.30190809,.00011895,53.1613,346.2756,93.6938,266.4199,0,U,57850,999,15014,-.14073991E-4,-.776E-5,0
STARLINK-30405,2023-141M,2026-05-12T23:50:29.054976,15.31704236,.00011046,53.1607,345.3550,87.5594,272.5534,0,U,57851,999,15017,.57697344E-4,.1426E-4,0
STARLINK-30431,2023-141N,2026-05-12T23:10:49.782144,15.30189992,.00011641,53.1607,345.2385,92.9231,267.1903,0,U,57852,999,15016,.7891363E-5,-.125E-5,0
STARLINK-30404,2023-141P,2026-05-12T23:04:45.093792,15.30186317,.00010686,53.1612,345.2087,82.9638,277.1484,0,U,57853,999,15017,-.23627267E-4,-.1058E-4,0
